QZS-1R                  
1 49336U 21096A   24073.46570389 -.00000260  00000+0  00000+0 0  9998
2 49336  35.7458  91.9776 0749358 269.5442 111.0713  1.00292100  8733
